STARLINK-32176          
1 60340U 24136M   26068.29145985 -.00000185  00000+0  58667-5 0  9995
2 60340  53.1602  77.5090 0001298  84.4689 275.6460 15.30192295 90779
TOMORROW-S2             
1 60485U 24149T   26068.75188364  .00008133  00000+0  27683-3 0  9990
2 60485  97.3857 150.0385 0001648 234.3331 125.7757 15.30674935 86869
